[{"OBJECT_NAME":"STARLINK-31329","OBJECT_ID":"2024-044T","EPOCH":"2026-03-09T11:56:28.518720","MEAN_MOTION":15.2757817,"ECCENTRICITY":0.00017143,"INCLINATION":43.0068,"RA_OF_ASC_NODE":108.3313,"ARG_OF_PERICENTER":285.706,"MEAN_ANOMALY":74.3603,"EPHEMERIS_TYPE":0,"CLASSIFICATION_TYPE":"U","NORAD_CAT_ID":59169,"ELEMENT_SET_NO":999,"REV_AT_EPOCH":11353,"BSTAR":-3.3548724e-5,"MEAN_MOTION_DOT":-1.185e-5,"MEAN_MOTION_DDOT":0},{"OBJECT_NAME":"CP8 (IPEX)","OBJECT_ID":"2013-072K","EPOCH":"2026-03-09T13:09:38.394720","MEAN_MOTION":15.06461805,"ECCENTRICITY":0.0159394,"INCLINATION":120.4656,"RA_OF_ASC_NODE":280.3913,"ARG_OF_PERICENTER":252.2911,"MEAN_ANOMALY":106.0698,"EPHEMERIS_TYPE":0,"CLASSIFICATION_TYPE":"U","NORAD_CAT_ID":39471,"ELEMENT_SET_NO":999,"REV_AT_EPOCH":10021,"BSTAR":0.00057825,"MEAN_MOTION_DOT":0.0001114,"MEAN_MOTION_DDOT":0}]
